SENTINEL-6              
1 46984U 20086A   24022.76118897 -.00000075  00000+0 -60232-4 0  9994
2 46984  66.0409 155.3978 0007749 269.8351  90.1776 12.80930228148195
